OBJECT_NAME,OBJECT_ID,EPOCH,MEAN_MOTION,ECCENTRICITY,INCLINATION,RA_OF_ASC_NODE,ARG_OF_PERICENTER,MEAN_ANOMALY,EPHEMERIS_TYPE,CLASSIFICATION_TYPE,NORAD_CAT_ID,ELEMENT_SET_NO,REV_AT_EPOCH,BSTAR,MEAN_MOTION_DOT,MEAN_MOTION_DDOT
PERSEUS-M1,2014-033AF,2026-06-07T17:40:44.401728,14.95606831,.0010804,97.9642,102.7138,337.5160,22.5585,0,U,40039,999,64922,.23216E-3,.252E-4,0
POLYITAN-1,2014-033AJ,2026-06-07T14:07:04.242720,15.32921473,.0007933,98.0953,183.9437,169.6269,190.5136,0,U,40042,999,65212,.5768E-3,.18293E-3,0
TIGRISAT,2014-033AK,2026-06-07T16:24:04.095936,14.85125541,.005071,97.7825,308.9139,105.5301,255.1521,0,U,40043,999,64421,.323E-3,.2773E-4,0
AEROCUBE 6A,2014-033AM,2026-06-07T17:44:22.140096,14.98005767,.0039381,97.7225,325.7893,49.2354,311.2275,0,U,40045,999,64520,.56576E-3,.673E-4,0
AEROCUBE 6B,2014-033AN,2026-06-07T10:00:31.927680,14.99463054,.003905,97.7228,325.2385,42.3827,318.0401,0,U,40046,999,64529,.59251E-3,.7324E-4,0
CANX-4,2014-034C,2026-06-07T15:03:11.782080,14.81248196,.0013773,98.3133,33.5889,46.0700,314.1646,0,U,40055,999,64311,.15914E-3,.1184E-4,0
CANX-5,2014-034D,2026-06-07T15:01:05.981952,14.81265325,.0013767,98.3136,33.6304,46.2377,313.9971,0,U,40056,999,63392,.15984E-3,.119E-4,0
UKUBE-1,2014-037F,2026-06-07T15:32:55.614624,15.13401371,.0002056,98.4242,160.9187,144.3716,215.7650,0,U,40074,999,64711,.50306E-3,.8908E-4,0
BRITE-PL2 (HEWELIUSZ),2014-049B,2026-06-07T06:19:50.180736,14.94560188,.0015105,97.9087,270.1883,138.2185,222.0191,0,U,40119,999,63996,.28361E-3,.3014E-4,0
AEROCUBE 5C,2015-058B,2026-06-07T18:47:56.111712,14.91410167,.0130387,64.7679,291.8442,66.9648,294.5152,0,U,40965,999,36425,.29173E-3,.3263E-4,0
AEROCUBE 7,2015-058C,2026-06-07T16:08:41.661024,14.95665181,.0120113,64.7628,274.6159,65.4910,295.8672,0,U,40966,999,36453,.34427E-3,.426E-4,0
FOX-1A (AO-85),2015-058D,2026-06-07T18:15:28.569312,14.90923768,.0129935,64.7762,308.2774,60.2802,301.1167,0,U,40967,999,11216,.28859E-3,.3179E-4,0
SINOD-D 1,2015-058E,2026-06-07T17:14:51.597600,14.95844977,.01185,64.7758,288.5630,56.8567,304.3850,0,U,40968,999,11524,.35022E-3,.4342E-4,0
SNAP-3 ALICE,2015-058G,2026-06-07T16:19:05.215872,15.57914233,.0030877,64.7501,136.7414,17.6772,342.5439,0,U,40970,999,11540,.15795E-2,.123003E-2,0
LMRST-SAT,2015-058H,2026-06-07T17:07:39.955296,14.90547366,.0131592,64.7766,304.7437,62.3235,299.1159,0,U,40971,999,11214,.29543E-3,.3239E-4,0
SNAP-3 EDDIE,2015-058J,2026-06-07T07:01:12.705024,15.59001703,.0030718,64.7421,128.8729,21.8774,338.3674,0,U,40972,999,11748,.13487E-2,.109217E-2,0
PROPCUBE 3,2015-058K,2026-06-07T18:32:21.126336,14.94205306,.0123617,64.7694,281.9498,63.6528,297.7217,0,U,40973,999,11339,.32023E-3,.3824E-4,0
BISONSAT,2015-058L,2026-06-07T11:14:37.223232,15.15991596,.0078343,64.7587,205.0602,51.2611,309.5481,0,U,40974,999,11414,.50096E-3,.10253E-3,0
SNAP-3 JIMI,2015-058M,2026-06-07T14:28:21.802368,15.02216903,.0105647,64.7649,250.0943,59.2946,301.8529,0,U,40975,999,11278,.3873E-3,.5594E-4,0
PROPCUBE 1 (FLORA),2015-058N,2026-06-07T17:26:55.817088,14.89177557,.0130313,64.7758,324.5545,64.6295,296.8242,0,U,40976,999,11485,.30886E-3,.3258E-4,0
SINOD-D 3,2015-058P,2026-06-07T17:39:21.712608,14.93956071,.0118827,64.7736,305.3320,61.8992,299.4072,0,U,40977,999,11334,.37544E-3,.4434E-4,0
HORYU-4,2016-012D,2026-06-07T15:50:33.219744,15.89027763,.0002832,30.9848,148.6331,206.9121,153.1392,0,U,41340,999,56929,.10211E-2,.317249E-2,0
RAVAN,2016-067B,2026-06-07T18:32:35.879136,15.53777871,.0005738,97.9898,47.2628,57.5249,302.6556,0,U,41849,999,52623,.82617E-3,.53185E-3,0
CELTEE 1,2016-067C,2026-06-07T14:14:38.942592,15.19589092,.0000604,98.0684,24.5061,94.7001,265.4301,0,U,41850,999,52442,.28566E-3,.6003E-4,0
OPTICUBE 04,2016-067D,2026-06-07T12:49:43.728096,15.09619511,.0016365,98.0710,10.3146,146.2046,214.0228,0,U,41851,999,52371,.20912E-3,.3301E-4,0
AEROCUBE 8D,2016-067E,2026-06-07T13:43:03.736128,15.24264293,.0004079,98.0697,28.0115,147.9169,212.2316,0,U,41852,999,52460,.34566E-3,.8361E-4,0
AEROCUBE 8C,2016-067F,2026-06-07T14:21:17.683776,15.24510037,.0006814,98.0568,25.2800,94.5133,265.6881,0,U,41853,999,52460,.34148E-3,.8324E-4,0
CORVUS BC2,2017-042X,2026-06-07T08:42:43.938720,15.06234837,.0014175,97.4064,320.0966,140.1884,220.0387,0,U,42846,999,48558,.23617E-3,.3412E-4,0
CORVUS BC1,2017-042Y,2026-06-07T10:12:13.277088,15.06402708,.001334,97.4088,320.9640,118.9612,241.2955,0,U,42847,999,48562,.222E-3,.3217E-4,0
MAKERSAT 0,2017-073D,2026-06-07T15:26:30.137568,15.31756990,.0106135,97.4640,41.0894,307.5668,51.5969,0,U,43016,999,46500,.58054E-3,.21201E-3,0
